start=new Date('2023-03-31T00:00:00.000Z').valueOf();
sats=[{"INCLINATION":"53.0519","SITE":"AFETR","MEAN_ELEMENT_THEORY":"SGP4","RCS_SIZE":"LARGE","MEAN_MOTION_DOT":"0.00037716","ECCENTRICITY":"0.00013080","TLE_LINE1":"1 46356U 20062AH  23089.49802204  .00037716  00000-0  25357-2 0  9993","REV_AT_EPOCH":"14243","ARG_OF_PERICENTER":"69.5394","ELEMENT_SET_NO":"999","BSTAR":"0.00253570000000","MEAN_ANOMALY":"290.5735","PERIAPSIS":"546.230","COUNTRY_CODE":"US","REF_FRAME":"TEME","TLE_LINE2":"2 46356  53.0519 163.3319 0001308  69.5394 290.5735 15.06425442142431","EPHEMERIS_TYPE":"0","FILE":"3875177","PERIOD":"95.591","CLASSIFICATION_TYPE":"U","EPOCH":"2023-03-30T11:57:09.104256","DECAY_DATE":null,"TIME_SYSTEM":"UTC","OBJECT_NAME":"STARLINK-1665","OBJECT_ID":"2020-062AH","CENTER_NAME":"EARTH","NORAD_CAT_ID":"46356","APOAPSIS":"548.041","SEMIMAJOR_AXIS":"6925.271","LAUNCH_DATE":"2020-09-03","OBJECT_TYPE":"PAYLOAD","RA_OF_ASC_NODE":"163.3319","MEAN_MOTION":"15.06425442","GP_ID":"229151233","MEAN_MOTION_DDOT":"0.0000000000000"},{"PERIAPSIS":"546.201","MEAN_ANOMALY":"193.0754","BSTAR":"-0.00390320000000","ELEMENT_SET_NO":"999","ARG_OF_PERICENTER":"167.0272","REV_AT_EPOCH":"14258","TLE_LINE1":"1 46357U 20062AJ  23089.82881094 -.00057961  00000-0 -39032-2 0  9996","ECCENTRICITY":"0.00014260","MEAN_MOTION_DOT":"-0.00057961","RCS_SIZE":"LARGE","MEAN_ELEMENT_THEORY":"SGP4","SITE":"AFETR","INCLINATION":"53.0543","MEAN_MOTION_DDOT":"0.0000000000000","GP_ID":"229179888","RA_OF_ASC_NODE":"141.8539","MEAN_MOTION":"15.06408072","OBJECT_TYPE":"PAYLOAD","LAUNCH_DATE":"2020-09-03","SEMIMAJOR_AXIS":"6925.324","APOAPSIS":"548.176","NORAD_CAT_ID":"46357","CENTER_NAME":"EARTH","OBJECT_ID":"2020-062AJ","OBJECT_NAME":"STARLINK-1666","TIME_SYSTEM":"UTC","DECAY_DATE":null,"EPOCH":"2023-03-30T19:53:29.265216","PERIOD":"95.592","CLASSIFICATION_TYPE":"U","FILE":"3875726","EPHEMERIS_TYPE":"0","TLE_LINE2":"2 46357  53.0543 141.8539 0001426 167.0272 193.0754 15.06408072142588","REF_FRAME":"TEME","COUNTRY_CODE":"US"},{"RA_OF_ASC_NODE":"162.5416","MEAN_MOTION":"15.06512776","OBJECT_TYPE":"PAYLOAD","MEAN_MOTION_DDOT":"0.0000000000000","GP_ID":"229180638","LAUNCH_DATE":"2020-09-03","SEMIMAJOR_AXIS":"6925.003","APOAPSIS":"547.811","NORAD_CAT_ID":"46358","OBJECT_ID":"2020-062AK","OBJECT_NAME":"STARLINK-1690","TIME_SYSTEM":"UTC","CENTER_NAME":"EARTH","EPHEMERIS_TYPE":"0","TLE_LINE2":"2 46358  53.0516 162.5416 0001362  90.9065 269.2080 15.06512776142288","REF_FRAME":"TEME","COUNTRY_CODE":"US","DECAY_DATE":null,"EPOCH":"2023-03-30T16:13:12.377280","CLASSIFICATION_TYPE":"U","PERIOD":"95.585","FILE":"3875726","MEAN_ANOMALY":"269.2080","PERIAPSIS":"545.925","ELEMENT_SET_NO":"999","ARG_OF_PERICENTER":"90.9065","REV_AT_EPOCH":"14228","TLE_LINE1":"1 46358U 20062AK  23089.67583770  .00038201  00000-0  25618-2 0  9999","BSTAR":"0.00256180000000","MEAN_MOTION_DOT":"0.00038201","RCS_SIZE":"LARGE","ECCENTRICITY":"0.00013620","SITE":"AFETR","INCLINATION":"53.0516","MEAN_ELEMENT_THEORY":"SGP4"},{"BSTAR":"0.00139170000000","ARG_OF_PERICENTER":"116.1541","REV_AT_EPOCH":"14289","ELEMENT_SET_NO":"999","TLE_LINE1":"1 46359U 20062AL  23089.58972741  .00020501  00000-0  13917-2 0  9993","PERIAPSIS":"546.344","MEAN_ANOMALY":"243.9584","MEAN_ELEMENT_THEORY":"SGP4","SITE":"AFETR","INCLINATION":"53.0520","ECCENTRICITY":"0.00013180","MEAN_MOTION_DOT":"0.00020501","RCS_SIZE":"LARGE","LAUNCH_DATE":"2020-09-03","NORAD_CAT_ID":"46359","APOAPSIS":"548.169","SEMIMAJOR_AXIS":"6925.392","GP_ID":"229180890","MEAN_MOTION_DDOT":"0.0000000000000","RA_OF_ASC_NODE":"117.9285","MEAN_MOTION":"15.06385964","OBJECT_TYPE":"PAYLOAD","EPOCH":"2023-03-30T14:09:12.448224","DECAY_DATE":null,"FILE":"3875726","CLASSIFICATION_TYPE":"U","PERIOD":"95.593","TLE_LINE2":"2 46359  53.0520 117.9285 0001318 116.1541 243.9584 15.06385964142895","EPHEMERIS_TYPE":"0","COUNTRY_CODE":"US","REF_FRAME":"TEME","CENTER_NAME":"EARTH","OBJECT_ID":"2020-062AL","TIME_SYSTEM":"UTC","OBJECT_NAME":"STARLINK-1707"},{"PERIOD":"95.592","CLASSIFICATION_TYPE":"U","FILE":"3875726","DECAY_DATE":null,"EPOCH":"2023-03-30T19:27:40.001760","REF_FRAME":"TEME","COUNTRY_CODE":"US","EPHEMERIS_TYPE":"0","TLE_LINE2":"2 46360  53.0526 116.9351 0001397  99.7725 260.3422 15.06407407142939","CENTER_NAME":"EARTH","OBJECT_NAME":"STARLINK-1713","TIME_SYSTEM":"UTC","OBJECT_ID":"2020-062AM","SEMIMAJOR_AXIS":"6925.326","APOAPSIS":"548.158","NORAD_CAT_ID":"46360","LAUNCH_DATE":"2020-09-03","MEAN_MOTION_DDOT":"0.0000000000000","GP_ID":"229181118","OBJECT_TYPE":"PAYLOAD","RA_OF_ASC_NODE":"116.9351","MEAN_MOTION":"15.06407407","MEAN_ELEMENT_THEORY":"SGP4","INCLINATION":"53.0526","SITE":"AFETR","ECCENTRICITY":"0.00013970","RCS_SIZE":"LARGE","MEAN_MOTION_DOT":"0.00022224","BSTAR":"0.00150590000000","TLE_LINE1":"1 46360U 20062AM  23089.81087965  .00022224  00000-0  15059-2 0  9999","ELEMENT_SET_NO":"999","ARG_OF_PERICENTER":"99.7725","REV_AT_EPOCH":"14293","PERIAPSIS":"546.223","MEAN_ANOMALY":"260.3422"},{"MEAN_ANOMALY":"265.3856","PERIAPSIS":"546.534","TLE_LINE1":"1 46361U 20062AN  23089.44872020  .00003096  00000-0  22679-3 0  9996","ELEMENT_SET_NO":"999","ARG_OF_PERICENTER":"94.7260","REV_AT_EPOCH":"14287","BSTAR":"0.00022679000000","RCS_SIZE":"LARGE","MEAN_MOTION_DOT":"0.00003096","ECCENTRICITY":"0.00011150","INCLINATION":"53.0545","SITE":"AFETR","MEAN_ELEMENT_THEORY":"SGP4","OBJECT_TYPE":"PAYLOAD","MEAN_MOTION":"15.06369617","RA_OF_ASC_NODE":"118.5585","MEAN_MOTION_DDOT":"0.0000000000000","GP_ID":"229180388","SEMIMAJOR_AXIS":"6925.442","NORAD_CAT_ID":"46361","APOAPSIS":"548.079","LAUNCH_DATE":"2020-09-03","OBJECT_NAME":"STARLINK-1722","TIME_SYSTEM":"UTC","OBJECT_ID":"2020-062AN","CENTER_NAME":"EARTH","COUNTRY_CODE":"US","REF_FRAME":"TEME","EPHEMERIS_TYPE":"0","TLE_LINE2":"2 46361  53.0545 118.5585 0001115  94.7260 265.3856 15.06369617142874","CLASSIFICATION_TYPE":"U","PERIOD":"95.594","FILE":"3875726","DECAY_DATE":null,"EPOCH":"2023-03-30T10:46:09.425280"},{"REF_FRAME":"TEME","COUNTRY_CODE":"US","TLE_LINE2":"2 46362  53.0520 118.9534 0001506 102.8989 257.2168 15.06386020142861","EPHEMERIS_TYPE":"0","FILE":"3875726","CLASSIFICATION_TYPE":"U","PERIOD":"95.593","EPOCH":"2023-03-30T08:40:07.357728","DECAY_DATE":null,"TIME_SYSTEM":"UTC","OBJECT_NAME":"STARLINK-1726","OBJECT_ID":"2020-062AP","CENTER_NAME":"EARTH","APOAPSIS":"548.299","NORAD_CAT_ID":"46362","SEMIMAJOR_AXIS":"6925.391","LAUNCH_DATE":"2020-09-03","OBJECT_TYPE":"PAYLOAD","MEAN_MOTION":"15.06386020","RA_OF_ASC_NODE":"118.9534","GP_ID":"229180139","MEAN_MOTION_DDOT":"0.0000000000000","INCLINATION":"53.0520","SITE":"AFETR","MEAN_ELEMENT_THEORY":"SGP4","RCS_SIZE":"LARGE","MEAN_MOTION_DOT":"0.00024532","ECCENTRICITY":"0.00015060","TLE_LINE1":"1 46362U 20062AP  23089.36119627  .00024532  00000-0  16607-2 0  9996","ARG_OF_PERICENTER":"102.8989","REV_AT_EPOCH":"14286","ELEMENT_SET_NO":"999","BSTAR":"0.00166070000000","MEAN_ANOMALY":"257.2168","PERIAPSIS":"546.213"},{"CLASSIFICATION_TYPE":"U","PERIOD":"95.593","FILE":"3875726","DECAY_DATE":null,"EPOCH":"2023-03-30T13:14:46.706208","REF_FRAME":"TEME","COUNTRY_CODE":"US","EPHEMERIS_TYPE":"0","TLE_LINE2":"2 46363  53.0539 118.0872 0001491  66.4851 293.6294 15.06381403142891","CENTER_NAME":"EARTH","OBJECT_NAME":"STARLINK-1739","TIME_SYSTEM":"UTC","OBJECT_ID":"2020-062AQ","SEMIMAJOR_AXIS":"6925.406","NORAD_CAT_ID":"46363","APOAPSIS":"548.303","LAUNCH_DATE":"2020-09-03","MEAN_MOTION_DDOT":"0.0000000000000","GP_ID":"229181389","OBJECT_TYPE":"PAYLOAD","RA_OF_ASC_NODE":"118.0872","MEAN_MOTION":"15.06381403","MEAN_ELEMENT_THEORY":"SGP4","INCLINATION":"53.0539","SITE":"AFETR","ECCENTRICITY":"0.00014910","RCS_SIZE":"LARGE","MEAN_MOTION_DOT":"0.00028733","BSTAR":"0.00194100000000","TLE_LINE1":"1 46363U 20062AQ  23089.55192947  .00028733  00000-0  19410-2 0  9996","ELEMENT_SET_NO":"999","ARG_OF_PERICENTER":"66.4851","REV_AT_EPOCH":"14289","PERIAPSIS":"546.238","MEAN_ANOMALY":"293.6294"},{"SITE":"AFETR","INCLINATION":"53.0542","MEAN_ELEMENT_THEORY":"SGP4","MEAN_MOTION_DOT":"0.00009574","RCS_SIZE":"LARGE","ECCENTRICITY":"0.00015010","ELEMENT_SET_NO":"999","ARG_OF_PERICENTER":"102.4544","REV_AT_EPOCH":"14314","TLE_LINE1":"1 46364U 20062AR  23089.42207627  .00009574  00000-0  66068-3 0  9999","BSTAR":"0.00066068000000","MEAN_ANOMALY":"257.6613","PERIAPSIS":"546.161","EPHEMERIS_TYPE":"0","TLE_LINE2":"2 46364  53.0542  99.1882 0001501 102.4544 257.6613 15.06404211143145","COUNTRY_CODE":"US","REF_FRAME":"TEME","DECAY_DATE":null,"EPOCH":"2023-03-30T10:07:47.389728","CLASSIFICATION_TYPE":"U","PERIOD":"95.592","FILE":"3875726","OBJECT_ID":"2020-062AR","OBJECT_NAME":"STARLINK-1763","TIME_SYSTEM":"UTC","CENTER_NAME":"EARTH","LAUNCH_DATE":"2020-09-03","SEMIMAJOR_AXIS":"6925.336","NORAD_CAT_ID":"46364","APOAPSIS":"548.240","RA_OF_ASC_NODE":"99.1882","MEAN_MOTION":"15.06404211","OBJECT_TYPE":"PAYLOAD","MEAN_MOTION_DDOT":"0.0000000000000","GP_ID":"229181617"},{"MEAN_ELEMENT_THEORY":"SGP4","SITE":"AFETR","INCLINATION":"53.0519","ECCENTRICITY":"0.00016690","MEAN_MOTION_DOT":"0.00025563","RCS_SIZE":"LARGE","BSTAR":"0.00172780000000","ARG_OF_PERICENTER":"84.2932","REV_AT_EPOCH":"14289","ELEMENT_SET_NO":"999","TLE_LINE1":"1 46365U 20062AS  23089.59712034  .00025563  00000-0  17278-2 0  9995","PERIAPSIS":"545.992","MEAN_ANOMALY":"275.8247","EPOCH":"2023-03-30T14:19:51.197376","DECAY_DATE":null,"FILE":"3875726","CLASSIFICATION_TYPE":"U","PERIOD":"95.591","TLE_LINE2":"2 46365  53.0519 117.8955 0001669  84.2932 275.8247 15.06421528142898","EPHEMERIS_TYPE":"0","REF_FRAME":"TEME","COUNTRY_CODE":"US","CENTER_NAME":"EARTH","OBJECT_ID":"2020-062AS","TIME_SYSTEM":"UTC","OBJECT_NAME":"STARLINK-1550","LAUNCH_DATE":"2020-09-03","APOAPSIS":"548.303","NORAD_CAT_ID":"46365","SEMIMAJOR_AXIS":"6925.283","GP_ID":"229179889","MEAN_MOTION_DDOT":"0.0000000000000","RA_OF_ASC_NODE":"117.8955","MEAN_MOTION":"15.06421528","OBJECT_TYPE":"PAYLOAD"}];
